[Satellite]
VERSION=1.1
NAME=IRIDIUM 911
NICKNAME=IRIDIUM 911
TLE1=1 24842U 97030G   22342.46132825  .00000507  00000+0  13792-3 0  9999
TLE2=2 24842  86.4493 231.5825 0012479 290.1236  69.8623 14.45544100341840
STATUS=2
